[{"OBJECT_NAME":"STARLINK-6295","OBJECT_ID":"2023-065BD","EPOCH":"2026-03-09T22:00:01.999584","MEAN_MOTION":15.11821362,"ECCENTRICITY":0.00018382,"INCLINATION":43.0002,"RA_OF_ASC_NODE":221.4104,"ARG_OF_PERICENTER":290.5312,"MEAN_ANOMALY":198.1737,"EPHEMERIS_TYPE":0,"CLASSIFICATION_TYPE":"U","NORAD_CAT_ID":56554,"ELEMENT_SET_NO":999,"REV_AT_EPOCH":577,"BSTAR":0.0053178278,"MEAN_MOTION_DOT":0.00093454,"MEAN_MOTION_DDOT":0},{"OBJECT_NAME":"THOR AGENA B DEB","OBJECT_ID":"1965-098G","EPOCH":"2026-03-09T23:22:06.853152","MEAN_MOTION":13.57256453,"ECCENTRICITY":0.07679635,"INCLINATION":79.6109,"RA_OF_ASC_NODE":51.0692,"ARG_OF_PERICENTER":143.4347,"MEAN_ANOMALY":222.1845,"EPHEMERIS_TYPE":0,"CLASSIFICATION_TYPE":"U","NORAD_CAT_ID":1951,"ELEMENT_SET_NO":999,"REV_AT_EPOCH":79416,"BSTAR":0.00077607754,"MEAN_MOTION_DOT":4.232e-5,"MEAN_MOTION_DDOT":0}]
